KUIPER-00121            
1 65950U 25228D   25302.97319241  .00038935  00000+0  11590-2 0  9997
2 65950  51.8795 231.4671 0005529 204.8639 155.2080 15.34318534  3695
KUIPER-00122            
1 65951U 25228E   25302.90930576  .00041806  00000+0  12487-2 0  9998
2 65951  51.8786 231.7819 0005996 213.0169 147.0443 15.34176440  3680
KUIPER-00123            
1 65952U 25228F   25302.97343043  .00033788  00000+0  10105-2 0  9998
2 65952  51.8782 231.4604 0005428 199.5247 160.5531 15.34240753  3699
KUIPER-00124            
1 65953U 25228G   25302.97493454  .00040813  00000+0  12211-2 0  9998
2 65953  51.8795 231.4763 0005398 215.0512 145.0118 15.34136939  3694
KUIPER-00125            
1 65954U 25228H   25302.97061623  .00020229  00000+0  60489-3 0  9998
2 65954  51.8781 231.4423 0005652 196.1486 163.9320 15.34535869  3694
KUIPER-00126            
1 65955U 25228J   25302.97379447  .00048877  00000+0  14517-2 0  9994
2 65955  51.8787 231.4668 0005915 209.6114 150.4537 15.34284786  3692
KUIPER-00127            
1 65956U 25228K   25302.90216339  .00041737  00000+0  12197-2 0  9998
2 65956  51.8785 231.7372 0006166 187.8595 172.2295 15.34864291  3682
KUIPER-00128            
1 65957U 25228L   25302.90444498  .00038091  00000+0  11224-2 0  9997
2 65957  51.8791 231.7554 0005809 192.0109 168.0739 15.34648645  3683
KUIPER-00129            
1 65958U 25228M   25302.90402260  .00040526  00000+0  11918-2 0  9995
2 65958  51.8783 231.7520 0005317 193.8226 166.2614 15.34683626  3681
KUIPER-00130            
1 65959U 25228N   25302.97166234  .00037868  00000+0  11222-2 0  9994
2 65959  51.8783 231.4492 0005311 201.9216 158.1543 15.34473611  3694
KUIPER-00134            
1 65960U 25228P   25302.97272181  .00038441  00000+0  11429-2 0  9992
2 65960  51.8782 231.4557 0005162 206.6680 153.4041 15.34365407  3692
KUIPER-00135            
1 65961U 25228Q   25302.97233189  .00030493  00000+0  91013-3 0  9995
2 65961  51.8798 231.4606 0005101 194.3004 165.7837 15.34356406  3699
